{
  "type": "FeatureCollection",
  "features": [
    {
      "type": "Feature",
      "properties": {
        "norad_id": 66562,
        "name": "STARLINK-35579",
        "group": "last-30-days",
        "lat": -6.369190012592162,
        "lon": -42.98568182448915,
        "alt_km": 415.5910186901183,
        "timestamp": "2025-12-11T05:00:25.075288+00:00",
        "meta_object_name": "STARLINK-35579",
        "meta_object_id": "2025-268F",
        "meta_epoch": "2025-12-10T22:00:03.000096",
        "meta_mean_motion": 15.50606582,
        "meta_eccentricity": 0.000171,
        "meta_inclination": 43.0003,
        "meta_ra_of_asc_node": 131.8425,
        "meta_arg_of_pericenter": 274.6298,
        "meta_mean_anomaly": 83.1756,
        "meta_ephemeris_type": 0,
        "meta_classification_type": "U",
        "meta_norad_cat_id": 66562,
        "meta_element_set_no": 999,
        "meta_rev_at_epoch": 437,
        "meta_bstar": -0.0012783361,
        "meta_mean_motion_dot": -0.00074699,
        "meta_mean_motion_ddot": 0,
        "tle_line1": "1 66562U 25268F   25344.91670139 -.00074699  00000+0 -12783-2 0  9991",
        "tle_line2": "2 66562  43.0003 131.8425 0001710 274.6298  83.1756 15.50606582  4370"
      },
      "geometry": {
        "type": "Point",
        "coordinates": [
          -42.98568182448915,
          -6.369190012592162
        ]
      }
    },
    {
      "type": "Feature",
      "properties": {
        "norad_id": 66563,
        "name": "STARLINK-35437",
        "group": "last-30-days",
        "lat": -8.96485657627431,
        "lon": -40.127690607912534,
        "alt_km": 415.89747916036595,
        "timestamp": "2025-12-11T05:00:25.075300+00:00",
        "meta_object_name": "STARLINK-35437",
        "meta_object_id": "2025-268G",
        "meta_epoch": "2025-12-10T22:00:03.000096",
        "meta_mean_motion": 15.50553657,
        "meta_eccentricity": 0.00014581,
        "meta_inclination": 43,
        "meta_ra_of_asc_node": 131.8334,
        "meta_arg_of_pericenter": 272.9583,
        "meta_mean_anomaly": 88.7385,
        "meta_ephemeris_type": 0,
        "meta_classification_type": "U",
        "meta_norad_cat_id": 66563,
        "meta_element_set_no": 999,
        "meta_rev_at_epoch": 437,
        "meta_bstar": -0.00070584044,
        "meta_mean_motion_dot": -0.00041493,
        "meta_mean_motion_ddot": 0,
        "tle_line1": "1 66563U 25268G   25344.91670139 -.00041493  00000+0 -70584-3 0  9992",
        "tle_line2": "2 66563  43.0000 131.8334 0001458 272.9583  88.7385 15.50553657  4377"
      },
      "geometry": {
        "type": "Point",
        "coordinates": [
          -40.127690607912534,
          -8.96485657627431
        ]
      }
    },
    {
      "type": "Feature",
      "properties": {
        "norad_id": 66564,
        "name": "STARLINK-35358",
        "group": "last-30-days",
        "lat": -10.237660719664795,
        "lon": -38.703630118987284,
        "alt_km": 415.92751058963677,
        "timestamp": "2025-12-11T05:00:25.075310+00:00",
        "meta_object_name": "STARLINK-35358",
        "meta_object_id": "2025-268H",
        "meta_epoch": "2025-12-10T22:00:03.000096",
        "meta_mean_motion": 15.50592578,
        "meta_eccentricity": 0.00017544,
        "meta_inclination": 43.0002,
        "meta_ra_of_asc_node": 131.8288,
        "meta_arg_of_pericenter": 275.566,
        "meta_mean_anomaly": 87.9954,
        "meta_ephemeris_type": 0,
        "meta_classification_type": "U",
        "meta_norad_cat_id": 66564,
        "meta_element_set_no": 999,
        "meta_rev_at_epoch": 432,
        "meta_bstar": -0.00088004101,
        "meta_mean_motion_dot": -0.00051656,
        "meta_mean_motion_ddot": 0,
        "tle_line1": "1 66564U 25268H   25344.91670139 -.00051656  00000+0 -88004-3 0  9991",
        "tle_line2": "2 66564  43.0002 131.8288 0001754 275.5660  87.9954 15.50592578  4325"
      },
      "geometry": {
        "type": "Point",
        "coordinates": [
          -38.703630118987284,
          -10.237660719664795
        ]
      }
    },
    {
      "type": "Feature",
      "properties": {
        "norad_id": 66565,
        "name": "STARLINK-35893",
        "group": "last-30-days",
        "lat": -11.51828733651077,
        "lon": -37.25249266964467,
        "alt_km": 415.9925326790026,
        "timestamp": "2025-12-11T05:00:25.075320+00:00",
        "meta_object_name": "STARLINK-35893",
        "meta_object_id": "2025-268J",
        "meta_epoch": "2025-12-10T22:00:03.000096",
        "meta_mean_motion": 15.50604768,
        "meta_eccentricity": 0.0001732,
        "meta_inclination": 43.0002,
        "meta_ra_of_asc_node": 131.8235,
        "meta_arg_of_pericenter": 273.8593,
        "meta_mean_anomaly": 91.6155,
        "meta_ephemeris_type": 0,
        "meta_classification_type": "U",
        "meta_norad_cat_id": 66565,
        "meta_element_set_no": 999,
        "meta_rev_at_epoch": 437,
        "meta_bstar": -0.0012291515,
        "meta_mean_motion_dot": -0.00071859,
        "meta_mean_motion_ddot": 0,
        "tle_line1": "1 66565U 25268J   25344.91670139 -.00071859  00000+0 -12292-2 0  9994",
        "tle_line2": "2 66565  43.0002 131.8235 0001732 273.8593  91.6155 15.50604768  4375"
      },
      "geometry": {
        "type": "Point",
        "coordinates": [
          -37.25249266964467,
          -11.51828733651077
        ]
      }
    },
    {
      "type": "Feature",
      "properties": {
        "norad_id": 66566,
        "name": "STARLINK-35871",
        "group": "last-30-days",
        "lat": -12.792300481104482,
        "lon": -35.78683400893797,
        "alt_km": 416.05292210056814,
        "timestamp": "2025-12-11T05:00:25.075330+00:00",
        "meta_object_name": "STARLINK-35871",
        "meta_object_id": "2025-268K",
        "meta_epoch": "2025-12-10T22:00:03.000096",
        "meta_mean_motion": 15.50603552,
        "meta_eccentricity": 0.00016311,
        "meta_inclination": 43.0002,
        "meta_ra_of_asc_node": 131.8186,
        "meta_arg_of_pericenter": 270.9149,
        "meta_mean_anomaly": 96.4817,
        "meta_ephemeris_type": 0,
        "meta_classification_type": "U",
        "meta_norad_cat_id": 66566,
        "meta_element_set_no": 999,
        "meta_rev_at_epoch": 437,
        "meta_bstar": -0.0012551336,
        "meta_mean_motion_dot": -0.00073353,
        "meta_mean_motion_ddot": 0,
        "tle_line1": "1 66566U 25268K   25344.91670139 -.00073353  00000+0 -12551-2 0  9994",
        "tle_line2": "2 66566  43.0002 131.8186 0001631 270.9149  96.4817 15.50603552  4372"
      },
      "geometry": {
        "type": "Point",
        "coordinates": [
          -35.78683400893797,
          -12.792300481104482
        ]
      }
    },
    {
      "type": "Feature",
      "properties": {
        "norad_id": 66567,
        "name": "STARLINK-35825",
        "group": "last-30-days",
        "lat": -14.052878774335667,
        "lon": -34.31209892517063,
        "alt_km": 416.15959869175913,
        "timestamp": "2025-12-11T05:00:25.075342+00:00",
        "meta_object_name": "STARLINK-35825",
        "meta_object_id": "2025-268L",
        "meta_epoch": "2025-12-10T22:00:03.000096",
        "meta_mean_motion": 15.5059466,
        "meta_eccentricity": 0.00016889,
        "meta_inclination": 43.0001,
        "meta_ra_of_asc_node": 131.814,
        "meta_arg_of_pericenter": 272.2915,
        "meta_mean_anomaly": 97.0241,
        "meta_ephemeris_type": 0,
        "meta_classification_type": "U",
        "meta_norad_cat_id": 66567,
        "meta_element_set_no": 999,
        "meta_rev_at_epoch": 437,
        "meta_bstar": -0.00099325137,
        "meta_mean_motion_dot": -0.00058213,
        "meta_mean_motion_ddot": 0,
        "tle_line1": "1 66567U 25268L   25344.91670139 -.00058213  00000+0 -99325-3 0  9998",
        "tle_line2": "2 66567  43.0001 131.8140 0001688 272.2915  97.0241 15.50594660  4377"
      },
      "geometry": {
        "type": "Point",
        "coordinates": [
          -34.31209892517063,
          -14.052878774335667
        ]
      }
    },
    {
      "type": "Feature",
      "properties": {
        "norad_id": 66568,
        "name": "STARLINK-35803",
        "group": "last-30-days",
        "lat": -15.305643960363044,
        "lon": -32.81975313274681,
        "alt_km": 416.25333516713454,
        "timestamp": "2025-12-11T05:00:25.075352+00:00",
        "meta_object_name": "STARLINK-35803",
        "meta_object_id": "2025-268M",
        "meta_epoch": "2025-12-10T22:00:03.000096",
        "meta_mean_motion": 15.50596014,
        "meta_eccentricity": 0.0001563,
        "meta_inclination": 43.0001,
        "meta_ra_of_asc_node": 131.8092,
        "meta_arg_of_pericenter": 271.1973,
        "meta_mean_anomaly": 100.0316,
        "meta_ephemeris_type": 0,
        "meta_classification_type": "U",
        "meta_norad_cat_id": 66568,
        "meta_element_set_no": 999,
        "meta_rev_at_epoch": 437,
        "meta_bstar": -0.0010256963,
        "meta_mean_motion_dot": -0.00060091,
        "meta_mean_motion_ddot": 0,
        "tle_line1": "1 66568U 25268M   25344.91670139 -.00060091  00000+0 -10257-2 0  9992",
        "tle_line2": "2 66568  43.0001 131.8092 0001563 271.1973 100.0316 15.50596014  4371"
      },
      "geometry": {
        "type": "Point",
        "coordinates": [
          -32.81975313274681,
          -15.305643960363044
        ]
      }
    }
  ]
}